[{"OBJECT_NAME":"MONITOR-3 (RS58S)","OBJECT_ID":"2023-091Q","EPOCH":"2026-03-09T23:24:02.583360","MEAN_MOTION":15.25747617,"ECCENTRICITY":0.0013676,"INCLINATION":97.5199,"RA_OF_ASC_NODE":131.7909,"ARG_OF_PERICENTER":91.0881,"MEAN_ANOMALY":269.1924,"EPHEMERIS_TYPE":0,"CLASSIFICATION_TYPE":"U","NORAD_CAT_ID":57180,"ELEMENT_SET_NO":999,"REV_AT_EPOCH":14915,"BSTAR":0.00054974842,"MEAN_MOTION_DOT":0.00014004,"MEAN_MOTION_DDOT":0},{"OBJECT_NAME":"QUICK3","OBJECT_ID":"2025-135AG","EPOCH":"2026-03-09T21:40:49.946304","MEAN_MOTION":15.24606762,"ECCENTRICITY":0.00063908,"INCLINATION":97.4614,"RA_OF_ASC_NODE":185.4931,"ARG_OF_PERICENTER":144.4818,"MEAN_ANOMALY":215.6846,"EPHEMERIS_TYPE":0,"CLASSIFICATION_TYPE":"U","NORAD_CAT_ID":64558,"ELEMENT_SET_NO":999,"REV_AT_EPOCH":3971,"BSTAR":0.00070513701,"MEAN_MOTION_DOT":0.00017352,"MEAN_MOTION_DDOT":0}]
